{"type": "FeatureCollection", "features": [ {"type": "Feature", "properties": {"norad_id": 66949, "name": "STARLINK-36096", "group": "last-30-days", "lat": 48.82657017274744, "lon": 67.0945471799373, "alt_km": 339.7991233394787, "timestamp": "2025-12-21T03:56:49.617612+00:00", "meta": {"OBJECT_NAME": "STARLINK-36096", "OBJECT_ID": "2025-286AA", "EPOCH": "2025-12-20T20:00:01.999008", "MEAN_MOTION": 15.74832193, "ECCENTRICITY": 9.21e-05, "INCLINATION": 53.1567, "RA_OF_ASC_NODE": 9.7224, "ARG_OF_PERICENTER": 99.9543, "MEAN_ANOMALY": 252.3903, "EPHEMERIS_TYPE": 0, "CLASSIFICATION_TYPE": "U", "NORAD_CAT_ID": 66949, "ELEMENT_SET_NO": 999, "REV_AT_EPOCH": 329, "BSTAR": -0.0065066, "MEAN_MOTION_DOT": -0.00883606, "MEAN_MOTION_DDOT": 0}, "tle": {"line1": "1 66949U 25286AA  25354.83335647 -.00883606  00000+0 -65066-2 0  9992", "line2": "2 66949  53.1567   9.7224 0000921  99.9543 252.3903 15.74832193  3299"}}, "geometry": {"type": "Point", "coordinates": [67.0945471799373, 48.82657017274744]}}, {"type": "Feature", "properties": {"norad_id": 66950, "name": "STARLINK-36111", "group": "last-30-days", "lat": 50.27272677944505, "lon": 72.52955352201468, "alt_km": 339.5573302312332, "timestamp": "2025-12-21T03:56:49.617622+00:00", "meta": {"OBJECT_NAME": "STARLINK-36111", "OBJECT_ID": "2025-286AB", "EPOCH": "2025-12-20T20:00:01.999008", "MEAN_MOTION": 15.74685289, "ECCENTRICITY": 0.000124, "INCLINATION": 53.1569, "RA_OF_ASC_NODE": 9.7138, "ARG_OF_PERICENTER": 101.8577, "MEAN_ANOMALY": 254.4246, "EPHEMERIS_TYPE": 0, "CLASSIFICATION_TYPE": "U", "NORAD_CAT_ID": 66950, "ELEMENT_SET_NO": 999, "REV_AT_EPOCH": 329, "BSTAR": -0.0057379, "MEAN_MOTION_DOT": -0.00783738, "MEAN_MOTION_DDOT": 0}, "tle": {"line1": "1 66950U 25286AB  25354.83335647 -.00783738  00000+0 -57379-2 0  9997", "line2": "2 66950  53.1569   9.7138 0001240 101.8577 254.4246 15.74685289  3297"}}, "geometry": {"type": "Point", "coordinates": [72.52955352201468, 50.27272677944505]}}, {"type": "Feature", "properties": {"norad_id": 66951, "name": "STARLINK-35999", "group": "last-30-days", "lat": 50.904361748449894, "lon": 75.40389682803982, "alt_km": 339.6306858502521, "timestamp": "2025-12-21T03:56:49.617631+00:00", "meta": {"OBJECT_NAME": "STARLINK-35999", "OBJECT_ID": "2025-286AC", "EPOCH": "2025-12-20T20:00:01.999008", "MEAN_MOTION": 15.74582793, "ECCENTRICITY": 9.75e-05, "INCLINATION": 53.1568, "RA_OF_ASC_NODE": 9.7097, "ARG_OF_PERICENTER": 112.19, "MEAN_ANOMALY": 246.063, "EPHEMERIS_TYPE": 0, "CLASSIFICATION_TYPE": "U", "NORAD_CAT_ID": 66951, "ELEMENT_SET_NO": 999, "REV_AT_EPOCH": 329, "BSTAR": -0.0043381, "MEAN_MOTION_DOT": -0.00602741, "MEAN_MOTION_DDOT": 0}, "tle": {"line1": "1 66951U 25286AC  25354.83335647 -.00602741  00000+0 -43381-2 0  9990", "line2": "2 66951  53.1568   9.7097 0000975 112.1900 246.0630 15.74582793  3290"}}, "geometry": {"type": "Point", "coordinates": [75.40389682803982, 50.904361748449894]}}, {"type": "Feature", "properties": {"norad_id": 66952, "name": "STARLINK-36122", "group": "last-30-days", "lat": 49.58827990467407, "lon": 69.7972871910845, "alt_km": 339.643835173114, "timestamp": "2025-12-21T03:56:49.617640+00:00", "meta": {"OBJECT_NAME": "STARLINK-36122", "OBJECT_ID": "2025-286AD", "EPOCH": "2025-12-20T20:00:01.999008", "MEAN_MOTION": 15.74757826, "ECCENTRICITY": 9.61e-05, "INCLINATION": 53.1568, "RA_OF_ASC_NODE": 9.7184, "ARG_OF_PERICENTER": 91.0362, "MEAN_ANOMALY": 263.281, "EPHEMERIS_TYPE": 0, "CLASSIFICATION_TYPE": "U", "NORAD_CAT_ID": 66952, "ELEMENT_SET_NO": 999, "REV_AT_EPOCH": 329, "BSTAR": -0.0058988, "MEAN_MOTION_DOT": -0.00806027, "MEAN_MOTION_DDOT": 0}, "tle": {"line1": "1 66952U 25286AD  25354.83335647 -.00806027  00000+0 -58988-2 0  9993", "line2": "2 66952  53.1568   9.7184 0000961  91.0362 263.2810 15.74757826  3292"}}, "geometry": {"type": "Point", "coordinates": [69.7972871910845, 49.58827990467407]}}, {"type": "Feature", "properties": {"norad_id": 66953, "name": "HULIANWANG DIGUI-114", "group": "last-30-days", "lat": -68.84094637971405, "lon": 172.19865994323027, "alt_km": 1017.8528593855826, "timestamp": "2025-12-21T03:56:49.617650+00:00", "meta": {"OBJECT_NAME": "HULIANWANG DIGUI-114", "OBJECT_ID": "2025-287A", "EPOCH": "2025-12-20T09:09:14.655168", "MEAN_MOTION": 13.66161866, "ECCENTRICITY": 0.00096738, "INCLINATION": 86.496, "RA_OF_ASC_NODE": 343.3747, "ARG_OF_PERICENTER": 185.0352, "MEAN_ANOMALY": 175.071, "EPHEMERIS_TYPE": 0, "CLASSIFICATION_TYPE": "U", "NORAD_CAT_ID": 66953, "ELEMENT_SET_NO": 999, "REV_AT_EPOCH": 157, "BSTAR": 3.033618e-06, "MEAN_MOTION_DOT": 1.9e-07, "MEAN_MOTION_DDOT": 0}, "tle": {"line1": "1 66953U 25287A   25354.38141962  .00000019  00000+0  30336-5 0  9995", "line2": "2 66953  86.4960 343.3747 0009673 185.0352 175.0710 13.66161866  1572"}}, "geometry": {"type": "Point", "coordinates": [172.19865994323027, -68.84094637971405]}}, {"type": "Feature", "properties": {"norad_id": 66954, "name": "HULIANWANG DIGUI-115", "group": "last-30-days", "lat": -75.39887737267946, "lon": 176.68919242506286, "alt_km": 1017.4285579570469, "timestamp": "2025-12-21T03:56:49.617659+00:00", "meta": {"OBJECT_NAME": "HULIANWANG DIGUI-115", "OBJECT_ID": "2025-287B", "EPOCH": "2025-12-20T14:23:56.755680", "MEAN_MOTION": 13.66603826, "ECCENTRICITY": 0.00094984, "INCLINATION": 86.4975, "RA_OF_ASC_NODE": 343.2967, "ARG_OF_PERICENTER": 182.0064, "MEAN_ANOMALY": 178.1058, "EPHEMERIS_TYPE": 0, "CLASSIFICATION_TYPE": "U", "NORAD_CAT_ID": 66954, "ELEMENT_SET_NO": 999, "REV_AT_EPOCH": 160, "BSTAR": -9.79328e-07, "MEAN_MOTION_DOT": 1.6e-07, "MEAN_MOTION_DDOT": 0}, "tle": {"line1": "1 66954U 25287B   25354.59996245  .00000016  00000+0 -97933-6 0  9996", "line2": "2 66954  86.4975 343.2967 0009498 182.0064 178.1058 13.66603826  1604"}}, "geometry": {"type": "Point", "coordinates": [176.68919242506286, -75.39887737267946]}}, {"type": "Feature", "properties": {"norad_id": 66955, "name": "HULIANWANG DIGUI-116", "group": "last-30-days", "lat": -82.14117459816133, "lon": -170.53740375754174, "alt_km": 1017.8042735649278, "timestamp": "2025-12-21T03:56:49.617673+00:00", "meta": {"OBJECT_NAME": "HULIANWANG DIGUI-116", "OBJECT_ID": "2025-287C", "EPOCH": "2025-12-20T14:22:05.512224", "MEAN_MOTION": 13.67009346, "ECCENTRICITY": 0.00086399, "INCLINATION": 86.4919, "RA_OF_ASC_NODE": 343.2828, "ARG_OF_PERICENTER": 174.3089, "MEAN_ANOMALY": 185.8169, "EPHEMERIS_TYPE": 0, "CLASSIFICATION_TYPE": "U", "NORAD_CAT_ID": 66955, "ELEMENT_SET_NO": 999, "REV_AT_EPOCH": 160, "BSTAR": 0.0001240372, "MEAN_MOTION_DOT": 1.2e-06, "MEAN_MOTION_DDOT": 0}, "tle": {"line1": "1 66955U 25287C   25354.59867491  .00000120  00000+0  12404-3 0  9999", "line2": "2 66955  86.4919 343.2828 0008639 174.3089 185.8169 13.67009346  1602"}}, "geometry": {"type": "Point", "coordinates": [-170.53740375754174, -82.14117459816133]}}, {"type": "Feature", "properties": {"norad_id": 66956, "name": "HULIANWANG DIGUI-117", "group": "last-30-days", "lat": -85.10432639921761, "lon": -62.56310212765869, "alt_km": 1016.4614983541314, "timestamp": "2025-12-21T03:56:49.617682+00:00", "meta": {"OBJECT_NAME": "HULIANWANG DIGUI-117", "OBJECT_ID": "2025-287D", "EPOCH": "2025-12-18T14:55:12.079776", "MEAN_MOTION": 13.67770338, "ECCENTRICITY": 0.00076767, "INCLINATION": 86.4971, "RA_OF_ASC_NODE": 344.0126, "ARG_OF_PERICENTER": 176.3616, "MEAN_ANOMALY": 183.76, "EPHEMERIS_TYPE": 0, "CLASSIFICATION_TYPE": "U", "NORAD_CAT_ID": 66956, "ELEMENT_SET_NO": 999, "REV_AT_EPOCH": 133, "BSTAR": 1.0922436e-05, "MEAN_MOTION_DOT": 2.6e-07, "MEAN_MOTION_DDOT": 0}, "tle": {"line1": "1 66956U 25287D   25352.62166759  .00000026  00000+0  10922-4 0  9990", "line2": "2 66956  86.4971 344.0126 0007676 176.3616 183.7600 13.67770338  1332"}}, "geometry": {"type": "Point", "coordinates": [-62.56310212765869, -85.10432639921761]}}, {"type": "Feature", "properties": {"norad_id": 66957, "name": "HULIANWANG DIGUI-118", "group": "last-30-days", "lat": -80.96927060083598, "lon": -39.597587993245895, "alt_km": 1016.9263847899583, "timestamp": "2025-12-21T03:56:49.617691+00:00", "meta": {"OBJECT_NAME": "HULIANWANG DIGUI-118", "OBJECT_ID": "2025-287E", "EPOCH": "2025-12-20T14:18:04.919328", "MEAN_MOTION": 13.67845038, "ECCENTRICITY": 0.00078288, "INCLINATION": 86.4951, "RA_OF_ASC_NODE": 343.2906, "ARG_OF_PERICENTER": 167.9951, "MEAN_ANOMALY": 192.1396, "EPHEMERIS_TYPE": 0, "CLASSIFICATION_TYPE": "U", "NORAD_CAT_ID": 66957, "ELEMENT_SET_NO": 999, "REV_AT_EPOCH": 160, "BSTAR": 0.00012213846, "MEAN_MOTION_DOT": 1.2e-06, "MEAN_MOTION_DDOT": 0}, "tle": {"line1": "1 66957U 25287E   25354.59589027  .00000120  00000+0  12214-3 0  9996", "line2": "2 66957  86.4951 343.2906 0007828 167.9951 192.1396 13.67845038  1601"}}, "geometry": {"type": "Point", "coordinates": [-39.597587993245895, -80.96927060083598]}}, {"type": "Feature", "properties": {"norad_id": 66958, "name": "CZ-6A R/B", "group": "last-30-days", "lat": -14.670854420326744, "lon": -18.018586153367814, "alt_km": 917.1804070425842, "timestamp": "2025-12-21T03:56:49.617700+00:00", "meta": {"OBJECT_NAME": "CZ-6A R/B", "OBJECT_ID": "2025-287F", "EPOCH": "2025-12-20T14:14:40.790688", "MEAN_MOTION": 13.94920926, "ECCENTRICITY": 0.01072707, "INCLINATION": 86.5061, "RA_OF_ASC_NODE": 343.1148, "ARG_OF_PERICENTER": 78.5459, "MEAN_ANOMALY": 282.7739, "EPHEMERIS_TYPE": 0, "CLASSIFICATION_TYPE": "U", "NORAD_CAT_ID": 66958, "ELEMENT_SET_NO": 999, "REV_AT_EPOCH": 163, "BSTAR": 3.200793e-05, "MEAN_MOTION_DOT": 6.4e-07, "MEAN_MOTION_DDOT": 0}, "tle": {"line1": "1 66958U 25287F   25354.59352767  .00000064  00000+0  32008-4 0  9997", "line2": "2 66958  86.5061 343.1148 0107270  78.5459 282.7739 13.94920926  1634"}}, "geometry": {"type": "Point", "coordinates": [-18.018586153367814, -14.670854420326744]}}]}